STARLINK-30311
1 57637U 23122F   26061.16668981  .01153335  00000+0  44232-1 0  9994
2 57637  43.0009 134.4899 0001651 268.4463  39.2736 15.23039548  5713
